KUIPER-00104            
1 65142U 25171L   25272.12932874  .00061774  00000+0  16953-2 0  9998
2 65142  51.8768 170.2292 0003985 312.4321  47.6328 15.36665287  8714
KUIPER-00105            
1 65143U 25171M   25272.83336806 -.00452158  00000+0 -15338-1 0  9997
2 65143  51.8786 166.7016 0006064 299.4627  44.3915 15.31884160  5837
KUIPER-00106            
1 65144U 25171N   25272.83336806 -.00305246  00000+0 -14048-1 0  9990
2 65144  51.8845 167.5932 0005517 283.8120 315.7069 15.21205132  5208
KUIPER-00107            
1 65145U 25171P   25272.12560177  .00083564  00000+0  22750-2 0  9997
2 65145  51.8756 170.2040 0004310 309.8052  50.2555 15.36772809  8721
KUIPER-00108            
1 65146U 25171Q   25272.72423711  .00127985  00000+0  34892-2 0  9992
2 65146  51.8758 167.4634 0003957 325.0415  35.0311 15.36497860  8812
KUIPER-00109            
1 65147U 25171R   25271.98952527  .00042076  00000+0  11455-2 0  9999
2 65147  51.8756 170.7842 0004486 296.8242  63.2286 15.37083386  8695
KUIPER-00110            
1 65148U 25171S   25272.83336806 -.00435636  00000+0 -17372-1 0  9994
2 65148  51.8781 167.0854 0006692 314.1195 192.6844 15.26575681  5650
KUIPER-00111            
1 65149U 25171T   25272.83336806 -.00354547  00000+0 -18509-1 0  9999
2 65149  51.8861 168.2466 0004420 318.6320  11.1444 15.17115812  5543
